NORAD_CAT_ID,OBJECT_NAME,OBJECT_TYPE,EPOCH,MEAN_MOTION,ECCENTRICITY,INCLINATION,RA_OF_ASC_NODE,ARG_OF_PERICENTER,MEAN_ANOMALY,BSTAR,MEAN_MOTION_DOT,MEAN_MOTION_DDOT,TLE_LINE0,TLE_LINE1,TLE_LINE2,SEMIMAJOR_AXIS,PERIOD,APOGEE,PERIGEE,DECAYED
52094.0,STARLINK-3714,PAYLOAD,2023-02-17 17:31:54,15.08818632,8.57e-05,53.2155,58.858,80.8394,279.2695,0.00086274,0.00013461,0.0,0 STARLINK-3714,1 52094U 22029G   23048.73049116  .00013461  00000-0  86274-3 0  9998,2 52094  53.2155  58.8580 0000857  80.8394 279.2695 15.08818632 52187,6917.946,95.439,540.404,539.218,0.0
52094.0,STARLINK-3714,PAYLOAD,2023-02-18 12:36:32,15.08849797,7.87e-05,53.2143,55.29,78.9825,281.1255,0.0012884,0.00020282,0.0,0 STARLINK-3714,1 52094U 22029G   23049.52537330  .00020282  00000-0  12884-2 0  9990,2 52094  53.2143  55.2900 0000787  78.9825 281.1255 15.08849797 52304,6917.85,95.437,540.26,539.171,0.0
52094.0,STARLINK-3714,PAYLOAD,2023-02-18 17:22:41,15.08841438,6.99e-05,53.214,54.3973,93.1706,266.9366,0.00055877,8.617e-05,0.0,0 STARLINK-3714,1 52094U 22029G   23049.72409360  .00008617  00000-0  55877-3 0  9991,2 52094  53.2140  54.3973 0000699  93.1706 266.9366 15.08841438 52331,6917.876,95.437,540.225,539.257,0.0
52094.0,STARLINK-3714,PAYLOAD,2023-02-19 09:16:32,15.08863978,4.9e-05,53.2134,51.4216,90.9419,269.1629,0.00075008,0.00011678,0.0,0 STARLINK-3714,1 52094U 22029G   23050.38648420  .00011678  00000-0  75008-3 0  9996,2 52094  53.2134  51.4216 0000490  90.9419 269.1629 15.08863978 52438,6917.807,95.436,540.011,539.333,0.0
52094.0,STARLINK-3714,PAYLOAD,2023-02-19 12:27:18,15.08868477,5.97e-05,53.2146,50.8273,87.2822,272.8238,0.00079,0.00012317,0.0,0 STARLINK-3714,1 52094U 22029G   23050.51896195  .00012317  00000-0  79000-3 0  9992,2 52094  53.2146  50.8273 0000597  87.2822 272.8238 15.08868477 52450,6917.793,95.436,540.071,539.245,0.0
52094.0,STARLINK-3714,PAYLOAD,2023-02-20 05:56:32,15.0885023,8.05e-05,53.2156,47.5562,100.3764,259.7319,0.0002654,3.94e-05,0.0,0 STARLINK-3714,1 52094U 22029G   23051.24760353  .00003940  00000-0  26540-3 0  9992,2 52094  53.2156  47.5562 0000805 100.3764 259.7319 15.08850230 52563,6917.849,95.437,540.271,539.157,0.0
52094.0,STARLINK-3714,PAYLOAD,2023-02-21 02:36:34,15.08846649,0.0001292,53.2168,43.6886,104.9017,255.2119,0.0011952,0.00018788,0.0,0 STARLINK-3714,1 52094U 22029G   23052.10872744  .00018788  00000-0  11952-2 0  9992,2 52094  53.2168  43.6886 0001292 104.9017 255.2119 15.08846649 52696,6917.86,95.437,540.619,538.831,0.0
52094.0,STARLINK-3714,PAYLOAD,2023-02-21 10:33:29,15.08851653,0.0001225,53.2155,42.2026,91.5293,268.584,0.0010395,0.000163,0.0,0 STARLINK-3714,1 52094U 22029G   23052.43992728  .00016300  00000-0  10395-2 0  9991,2 52094  53.2155  42.2026 0001225  91.5293 268.5840 15.08851653 52741,6917.845,95.437,540.557,538.862,0.0
52094.0,STARLINK-3714,PAYLOAD,2023-02-22 02:27:21,15.08841687,0.0001011,53.2175,39.2344,71.4292,288.681,0.0006472,0.00010028,0.0,0 STARLINK-3714,1 52094U 22029G   23053.10232940  .00010028  00000-0  64720-3 0  9992,2 52094  53.2175  39.2344 0001011  71.4292 288.6810 15.08841687 52848,6917.875,95.437,540.44,539.041,0.0
52094.0,STARLINK-3714,PAYLOAD,2023-02-22 10:24:16,15.08861884,0.0001205,53.2169,37.7421,100.4713,259.6415,0.0007209,0.00011211,0.0,0 STARLINK-3714,1 52094U 22029G   23053.43352198  .00011211  00000-0  72090-3 0  9990,2 52094  53.2169  37.7421 0001205 100.4713 259.6415 15.08861884 52891,6917.813,95.436,540.512,538.845,0.0
52094.0,STARLINK-3714,PAYLOAD,2023-02-22 23:07:21,15.08831991,0.0001032,53.2171,35.3633,106.722,253.3886,8.8113e-05,1.115e-05,0.0,0 STARLINK-3714,1 52094U 22029G   23053.96344843  .00001115  00000-0  88113-4 0  9992,2 52094  53.2171  35.3633 0001032 106.7220 253.3886 15.08831991 52971,6917.905,95.438,540.484,539.056,0.0
52094.0,STARLINK-3714,PAYLOAD,2023-02-23 10:15:03,15.08857517,9.47e-05,53.2169,33.2834,110.5434,249.566,0.0018635,0.00029508,0.0,0 STARLINK-3714,1 52094U 22029G   23054.42712750  .00029508  00000-0  18635-2 0  9996,2 52094  53.2169  33.2834 0000947 110.5434 249.5660 15.08857517 53040,6917.827,95.436,540.347,539.037,0.0
52094.0,STARLINK-3714,PAYLOAD,2023-02-23 21:22:45,15.088597,0.0001997,53.2177,31.2028,99.7713,260.3505,0.0014154,0.00022322,0.0,0 STARLINK-3714,1 52094U 22029G   23054.89081003  .00022322  00000-0  14154-2 0  9996,2 52094  53.2177  31.2028 0001997  99.7713 260.3505 15.08859700 53119,6917.82,95.436,541.067,538.304,0.0
52094.0,STARLINK-3714,PAYLOAD,2023-02-24 10:05:50,15.08869059,7.85e-05,53.217,28.8228,101.2952,258.8128,0.0013954,0.00022007,0.0,0 STARLINK-3714,1 52094U 22029G   23055.42072373  .00022007  00000-0  13954-2 0  9993,2 52094  53.2170  28.8228 0000785 101.2952 258.8128 15.08869059 53193,6917.792,95.436,540.2,539.114,0.0
52094.0,STARLINK-3714,PAYLOAD,2023-02-25 01:59:42,15.08833547,0.0001747,53.2174,25.849,112.0732,248.0446,0.00070844,0.00011003,0.0,0 STARLINK-3714,1 52094U 22029G   23056.08313240  .00011003  00000-0  70844-3 0  9993,2 52094  53.2174  25.8490 0001747 112.0732 248.0446 15.08833547 53298,6917.9,95.438,540.974,538.557,0.0
52094.0,STARLINK-3714,PAYLOAD,2023-02-25 08:21:15,15.08842134,8.18e-05,53.2176,24.6603,92.448,267.6606,0.0005926,9.157e-05,0.0,0 STARLINK-3714,1 52094U 22029G   23056.34809199  .00009157  00000-0  59260-3 0  9991,2 52094  53.2176  24.6603 0000818  92.4480 267.6606 15.08842134 53334,6917.874,95.437,540.305,539.173,0.0
52094.0,STARLINK-3714,PAYLOAD,2023-02-26 09:47:24,15.08878802,9.56e-05,53.2165,19.9024,86.9974,273.1127,0.0014569,0.00022999,0.0,0 STARLINK-3714,1 52094U 22029G   23057.40792373  .00022999  00000-0  14569-2 0  9995,2 52094  53.2165  19.9024 0000956  86.9974 273.1127 15.08878802 53493,6917.762,95.435,540.288,538.965,0.0
52094.0,STARLINK-3714,PAYLOAD,2023-02-27 04:52:02,15.08858522,0.0001657,53.217,16.3351,50.9718,309.1422,0.0019,0.00030095,0.0,0 STARLINK-3714,1 52094U 22029G   23058.20280822  .00030095  00000-0  19000-2 0  9996,2 52094  53.2170  16.3351 0001657  50.9718 309.1422 15.08858522 53618,6917.824,95.436,540.835,538.542,0.0
52094.0,STARLINK-3714,PAYLOAD,2023-02-27 20:45:53,15.08850562,0.0001256,53.2175,13.3573,136.9072,223.2018,0.0025197,0.00040053,0.0,0 STARLINK-3714,1 52094U 22029G   23058.86520590  .00040053  00000-0  25197-2 0  9996,2 52094  53.2175  13.3573 0001256 136.9072 223.2018 15.08850562 53713,6917.848,95.437,540.582,538.844,0.0
52094.0,STARLINK-3714,PAYLOAD,2023-02-28 03:07:26,15.08859643,9.55e-05,53.2168,12.1695,114.5592,245.5499,0.0014085,0.00022211,0.0,0 STARLINK-3714,1 52094U 22029G   23059.13016324  .00022211  00000-0  14085-2 0  9992,2 52094  53.2168  12.1695 0000955 114.5592 245.5499 15.08859643 53754,6917.82,95.436,540.346,539.025,0.0
52094.0,STARLINK-3714,PAYLOAD,2023-03-01 02:58:14,15.08809997,0.0001052,53.2176,7.7112,113.6923,246.4179,6.2701e-05,7.1e-06,0.0,0 STARLINK-3714,1 52094U 22029G   23060.12378192  .00000710  00000-0  62701-4 0  9997,2 52094  53.2176   7.7112 0001052 113.6923 246.4179 15.08809997 53903,6917.972,95.439,540.565,539.109,0.0
52094.0,STARLINK-3714,PAYLOAD,2023-03-01 07:44:24,15.08821637,0.0001193,53.2166,6.8196,110.1912,249.9208,0.0002684,3.984e-05,0.0,0 STARLINK-3714,1 52094U 22029G   23060.32250422  .00003984  00000-0  26840-3 0  9993,2 52094  53.2166   6.8196 0001193 110.1912 249.9208 15.08821637 53939,6917.937,95.439,540.627,538.976,0.0
52094.0,STARLINK-3714,PAYLOAD,2023-03-02 02:49:01,15.08874185,0.0001316,53.2171,3.2504,121.3364,238.7757,0.0018481,0.00029275,0.0,0 STARLINK-3714,1 52094U 22029G   23061.11737910  .00029275  00000-0  18481-2 0  9995,2 52094  53.2171   3.2504 0001316 121.3364 238.7757 15.08874185 54056,6917.776,95.435,540.551,538.731,0.0
52094.0,STARLINK-3714,PAYLOAD,2023-03-02 20:18:15,15.08863523,9.67e-05,53.2174,359.9791,109.8919,250.2178,0.0012141,0.000191,0.0,0 STARLINK-3714,1 52094U 22029G   23061.84601393  .00019100  00000-0  12141-2 0  9993,2 52094  53.2174 359.9791 0000967 109.8919 250.2178 15.08863523 54168,6917.808,95.436,540.342,539.005,0.0
52094.0,STARLINK-3714,PAYLOAD,2023-03-03 02:39:48,15.08868327,0.0001102,53.2175,358.7913,106.654,253.4573,0.0019325,0.00030626,0.0,0 STARLINK-3714,1 52094U 22029G   23062.11097253  .00030626  00000-0  19325-2 0  9995,2 52094  53.2175 358.7913 0001102 106.6540 253.4573 15.08868327 54205,6917.794,95.436,540.421,538.896,0.0
52094.0,STARLINK-3714,PAYLOAD,2023-03-04 02:30:34,15.08884081,0.0001016,53.2172,354.3285,88.6574,271.4534,0.0018744,0.00029705,0.0,0 STARLINK-3714,1 52094U 22029G   23063.10456188  .00029705  00000-0  18744-2 0  9991,2 52094  53.2172 354.3285 0001016  88.6574 271.4534 15.08884081 54354,6917.746,95.435,540.313,538.908,0.0
52094.0,STARLINK-3714,PAYLOAD,2023-03-04 05:41:19,15.08896581,9.64e-05,53.2171,353.7339,85.3949,274.7153,0.0021504,0.00034155,0.0,0 STARLINK-3714,1 52094U 22029G   23063.23703697  .00034155  00000-0  21504-2 0  9998,2 52094  53.2171 353.7339 0000964  85.3949 274.7153 15.08896581 54370,6917.707,95.434,540.239,538.906,0.0
52094.0,STARLINK-3714,PAYLOAD,2023-03-04 19:59:49,15.08836871,0.0001511,53.2168,351.0559,85.0785,275.038,0.0009779,0.00015308,0.0,0 STARLINK-3714,1 52094U 22029G   23063.83320894  .00015308  00000-0  97790-3 0  9998,2 52094  53.2168 351.0559 0001511  85.0785 275.0380 15.08836871 54467,6917.89,95.438,540.8,538.71,0.0
52094.0,STARLINK-3714,PAYLOAD,2023-03-06 02:12:09,15.08862412,0.0002724,53.217,345.4091,42.4075,317.7128,0.0017049,0.00026967,0.0,0 STARLINK-3714,1 52094U 22029G   23065.09178034  .00026967  00000-0  17049-2 0  9996,2 52094  53.2170 345.4091 0002724  42.4075 317.7128 15.08862412 54659,6917.812,95.436,541.561,537.792,0.0
52094.0,STARLINK-3714,PAYLOAD,2023-03-06 18:06:01,15.08836848,0.0001164,53.2173,342.4334,116.4803,243.6308,0.00078728,0.00012263,0.0,0 STARLINK-3714,1 52094U 22029G   23065.75417973  .00012263  00000-0  78728-3 0  9993,2 52094  53.2173 342.4334 0001164 116.4803 243.6308 15.08836848 54759,6917.89,95.438,540.56,538.95,0.0
